[{"OBJECT_NAME":"STARLINK-4588","OBJECT_ID":"2022-104BF","EPOCH":"2026-03-09T17:34:57.743328","MEAN_MOTION":15.08843863,"ECCENTRICITY":0.00012264,"INCLINATION":53.2166,"RA_OF_ASC_NODE":223.7924,"ARG_OF_PERICENTER":87.5023,"MEAN_ANOMALY":272.611,"EPHEMERIS_TYPE":0,"CLASSIFICATION_TYPE":"U","NORAD_CAT_ID":53641,"ELEMENT_SET_NO":999,"REV_AT_EPOCH":19623,"BSTAR":-6.2874278e-5,"MEAN_MOTION_DOT":-1.288e-5,"MEAN_MOTION_DDOT":0},{"OBJECT_NAME":"COSMOS 2058","OBJECT_ID":"1990-010A","EPOCH":"2026-03-09T23:30:01.891584","MEAN_MOTION":15.11324867,"ECCENTRICITY":0.00093159,"INCLINATION":82.4669,"RA_OF_ASC_NODE":47.1427,"ARG_OF_PERICENTER":343.3032,"MEAN_ANOMALY":16.789,"EPHEMERIS_TYPE":0,"CLASSIFICATION_TYPE":"U","NORAD_CAT_ID":20465,"ELEMENT_SET_NO":999,"REV_AT_EPOCH":94228,"BSTAR":0.00029943939,"MEAN_MOTION_DOT":5.077e-5,"MEAN_MOTION_DDOT":0}]
